[{"OBJECT_NAME":"STARLINK-1736","OBJECT_ID":"2020-070BF","EPOCH":"2026-03-09T10:02:57.052032","MEAN_MOTION":15.66676236,"ECCENTRICITY":0.00011151,"INCLINATION":53.042,"RA_OF_ASC_NODE":117.3157,"ARG_OF_PERICENTER":98.6487,"MEAN_ANOMALY":261.4655,"EPHEMERIS_TYPE":0,"CLASSIFICATION_TYPE":"U","NORAD_CAT_ID":46585,"ELEMENT_SET_NO":999,"REV_AT_EPOCH":30031,"BSTAR":0.00089725065,"MEAN_MOTION_DOT":0.00096585,"MEAN_MOTION_DDOT":0},{"OBJECT_NAME":"FREGAT DEB","OBJECT_ID":"2011-037AE","EPOCH":"2026-03-09T11:56:15.633888","MEAN_MOTION":13.06115161,"ECCENTRICITY":0.1161067,"INCLINATION":51.4064,"RA_OF_ASC_NODE":123.1143,"ARG_OF_PERICENTER":278.9184,"MEAN_ANOMALY":68.2271,"EPHEMERIS_TYPE":0,"CLASSIFICATION_TYPE":"U","NORAD_CAT_ID":45638,"ELEMENT_SET_NO":999,"REV_AT_EPOCH":25229,"BSTAR":0.0046705437,"MEAN_MOTION_DOT":0.00073585,"MEAN_MOTION_DDOT":0}]
